{"type": "FeatureCollection", "features": [{"type": "Feature", "geometry": {"type": "Point", "coordinates": [89.2343748, 51.2086975]}, "properties": {"name": "Asia", "type": "continent", "titles": ["chapman-caesar-and-pompey-the-wars-of-caesar-and-pompey", "alexander-croesus", "kirke-the-seven-champions-of-christendom", "denham-the-sophy", "cary-mariam-the-fair-queen-of-jewry", "heywood-a-challenge-for-beauty", "heywood-the-iron-age-2", "alexander-caesar", "fisher-fuimus-troes", "daniel-cleopatra", "greene-alphonsus-king-of-aragon", "greene-selimus-1", "alexander-darius", "heywood-the-iron-age-1", "wilkins-the-miseries-of-enforced-marriage", "randolph-aristippus-or-the-jovial-philosopher", "may-julia-agrippina-empress-of-rome", "daniel-philotas", "heywood-the-brazen-age", "marlowe-nashe-dido-queen-of-carthage", "markham-sampson-herod-and-antipater", "heywood-the-four-prentices-of-london", "rowley-a-shoemaker-a-gentleman", "greville-mustapha", "greene-orlando-furioso", "tomkis-albumazar", "anon-the-wars-of-cyrus", "wilmot-hatton-noel-al-stafford-tancred-and-gismund", "anon-caesar-and-pompey", "jonson-catiline-his-conspiracy", "alexander-the-alexandraean-tragedy"], "original_label": "Asia", "count": 31}}, {"type": "Feature", "geometry": {"type": "Point", "coordinates": [10.0, 51.0]}, "properties": {"name": "Europe", "type": "continent", "titles": ["chapman-caesar-and-pompey-the-wars-of-caesar-and-pompey", "middleton-more-dissemblers-besides-women", "mason-the-turk", "heywood-the-royal-king-and-the-loyal-subject", "hughes-the-misfortunes-of-arthur", "heywood-a-challenge-for-beauty", "heywood-rowley-fortune-by-land-and-sea", "massinger-the-city-madam", "fletcher-ford-massinger-webster-the-fair-maid-of-the-inn", "chapman-the-conspiracy-of-charles-duke-of-byron", "heywood-the-iron-age-2", "anon-the-true-tragedy-of-richard-the-third", "stephens-cynthia-s-revenge", "alexander-caesar", "fisher-fuimus-troes", "sharpham-cupid-s-whirligig", "ford-the-queen", "chapman-monsieur-d-olive", "greene-friar-bacon-and-friar-bongay", "beaumont-fletcher-massinger-beggars-bush", "middleton-a-game-at-chess", "gascoigne-the-glass-of-government", "heywood-how-a-man-may-choose-a-good-wife-from-a-bad", "rowley-all-s-lost-by-lust", "jonson-epicoene-or-the-silent-woman-A04645", "alexander-darius", "beaumont-fletcher-the-coxcomb", "freeman-imperiale", "d-the-knave-in-grain-new-vamped", "marston-parasitaster", "brome-the-cunning-lovers", "ford-the-laws-of-candy", "jonson-the-new-inn", "marlowe-nashe-dido-queen-of-carthage", "beaumont-fletcher-massinger-thierry-and-theodoret", "middleton-the-family-of-love", "webster-rowley-the-thracian-wonder", "munday-drayton-wilson-hathaway-sir-john-oldcastle-1", "shirley-the-school-of-compliment", "heywood-the-four-prentices-of-london", "peele-edward-the-first", "nabbes-the-bride", "anon-a-larum-for-london", "brome-the-antipodes", "marmion-a-fine-companion", "wilson-the-three-ladies-of-london", "marston-histriomastix", "greene-orlando-furioso", "chapman-all-fools", "marlowe-dr-faustus", "webster-the-devil-s-law-case", "dekker-webster-northward-ho", "rowley-when-you-see-me-you-know-me", "jonson-volpone", "cumber-the-two-merry-milkmaids", "jonson-every-man-in-his-humour", "middleton-your-five-gallants", "jonson-the-entertainment-of-the-queen-and-prince-at-althorp", "lyly-the-woman-in-the-moon", "heywood-the-wise-woman-of-hogsdon"], "original_label": "Europe", "count": 60}}, {"type": "Feature", "geometry": {"type": "Point", "coordinates": [17.7578122, 11.5024338]}, "properties": {"name": "Africa", "type": "continent", "titles": ["anon-the-pedlar-s-prophecy", "kyd-soliman-and-perseda", "davenant-the-just-italian", "heywood-a-challenge-for-beauty", "alexander-caesar", "brome-the-queen-s-exchange", "fletcher-massinger-the-little-french-lawyer", "greene-alphonsus-king-of-aragon", "greene-friar-bacon-and-friar-bongay", "shirley-the-wedding", "greene-selimus-1", "beaumont-fletcher-the-coxcomb", "anon-a-knack-to-know-a-knave", "dekker-ford-the-sun-s-darling", "day-the-isle-of-gulls", "greene-orlando-furioso", "anon-caesar-and-pompey", "chapman-jonson-marston-eastward-ho", "peele-the-battle-of-alcazar"], "original_label": "Africa", "count": 19}}, {"type": "Feature", "geometry": {"type": "Point", "coordinates": [-100.445882, 39.7837304]}, "properties": {"name": "America", "type": "continent", "titles": ["beaumont-fletcher-the-coxcomb", "marlowe-dr-faustus", "marlowe-the-massacre-at-paris", "s-locrine", "shirley-the-gamester", "shirley-the-contention-for-honor-and-riches"], "original_label": "America", "count": 6}}]}