{"type": "FeatureCollection", "features": [{"type": "Feature", "geometry": {"type": "Point", "coordinates": [25.720588707973135, 38.06222755]}, "properties": {"name": "Αιγαίον Πέλαγος / Ege Denizi", "type": "natural features", "titles": ["heywood-the-golden-age", "alexander-the-alexandraean-tragedy"], "original_label": "Aegean", "count": 2}}, {"type": "Feature", "geometry": {"type": "Point", "coordinates": [40.8075651, 34.7314754]}, "properties": {"name": "الفرات, سوريا", "type": "natural features", "titles": ["anon-caesar-and-pompey", "lower-the-phoenix-in-her-flames", "alexander-the-alexandraean-tragedy", "anon-the-wars-of-cyrus"], "original_label": "Euphrates", "count": 4}}, {"type": "Feature", "geometry": {"type": "Point", "coordinates": [-8.8069, 39.7463]}, "properties": {"name": "Leiria, Portugal", "type": "natural features", "titles": ["anon-a-larum-for-london"], "original_label": "Leyre", "count": 1}}, {"type": "Feature", "geometry": {"type": "Point", "coordinates": [7.351989, 50.4677626]}, "properties": {"name": "Rhein, Deutschland", "type": "natural features", "titles": ["anon-alphonsus-emperor-of-germany", "fisher-fuimus-troes", "marlowe-dr-faustus", "rowley-a-shoemaker-a-gentleman", "dekker-if-it-be-not-good-the-devil-is-in-it", "dekker-webster-northward-ho"], "original_label": "Rhein/Rhine", "count": 6}}, {"type": "Feature", "geometry": {"type": "Point", "coordinates": [83.1, 25.34]}, "properties": {"name": "Ganges River", "type": "natural features", "titles": ["fisher-fuimus-troes", "marlowe-nashe-dido-queen-of-carthage", "chapman-monsieur-d-olive", "anon-caesar-and-pompey", "heywood-the-four-prentices-of-london"], "original_label": "Ganges", "count": 5}}, {"type": "Feature", "geometry": {"type": "Point", "coordinates": [22.716667, 37.55]}, "properties": {"name": "Lerna", "type": "natural features", "titles": ["anon-caesar-and-pompey"], "original_label": "Lerna", "count": 1}}, {"type": "Feature", "geometry": {"type": "Point", "coordinates": [32.1053309, 22.724378]}, "properties": {"name": "Nile River", "type": "natural features", "titles": ["anon-caesar-and-pompey"], "original_label": "Nile", "count": 1}}, {"type": "Feature", "geometry": {"type": "Point", "coordinates": [50.560757905794325, 41.7789772]}, "properties": {"name": "Caspian Sea", "type": "natural features", "titles": ["fisher-fuimus-troes", "chapman-the-tragedy-of-charles-duke-of-byron", "denham-the-sophy", "chapman-the-blind-beggar-of-alexandria", "anon-caesar-and-pompey"], "original_label": "Caspian", "count": 5}}, {"type": "Feature", "geometry": {"type": "Point", "coordinates": [12.3467594, 42.760123]}, "properties": {"name": "Tevere, Italia", "type": "natural features", "titles": ["heywood-the-rape-of-lucrece", "anon-nero", "barnes-the-devil-s-charter"], "original_label": "Tiber", "count": 3}}, {"type": "Feature", "geometry": {"type": "Point", "coordinates": [44.9961252, 42.4913744]}, "properties": {"name": "Caucasus Mountains, ჭალისოფელი, დუშეთის მუნიციპალიტეტი, მცხეთა-მთიანეთი, საქართველო", "type": "natural features", "titles": ["freeman-imperiale", "fisher-fuimus-troes", "richards-messalina-the-roman-empress", "mason-the-turk", "anon-nero", "heywood-the-brazen-age", "randolph-the-jealous-lovers"], "original_label": "Caucasus", "count": 7}}, {"type": "Feature", "geometry": {"type": "Point", "coordinates": [19.9999957, 35.0000035]}, "properties": {"name": "Mediterranean Sea", "type": "natural features", "titles": ["barnes-the-devil-s-charter", "marlowe-the-jew-of-malta", "webster-rowley-the-thracian-wonder"], "original_label": "Mediterranean/Mediterean", "count": 3}}, {"type": "Feature", "geometry": {"type": "Point", "coordinates": [22.50542037272511, 38.48419635152567]}, "properties": {"name": "Castalian Spring, Delphi", "type": "natural features", "titles": ["barnes-the-devil-s-charter"], "original_label": "Castalian", "count": 1}}, {"type": "Feature", "geometry": {"type": "Point", "coordinates": [-0.781404, 51.5575525]}, "properties": {"name": "River Thames, England, United Kingdom", "type": "natural features", "titles": ["jonson-bartholomew-fair", "cavendish-the-variety", "nashe-summer-s-last-will-and-testament", "rowley-when-you-see-me-you-know-me", "day-law-tricks", "yarington-two-lamentable-tragedies", "chapman-jonson-marston-eastward-ho", "rowley-a-new-wonder-a-woman-never-vexed", "shirley-the-lady-of-pleasure", "dekker-webster-westward-ho", "hawkins-apollo-shroving", "beaumont-fletcher-the-scornful-lady", "jonson-epicoene-or-the-silent-woman-A04645"], "original_label": "Thames", "count": 13}}, {"type": "Feature", "geometry": {"type": "Point", "coordinates": [22.824774964183845, 38.353071474482206]}, "properties": {"name": "Mount Helicon", "type": "natural features", "titles": ["brome-the-city-wit"], "original_label": "Helicon", "count": 1}}, {"type": "Feature", "geometry": {"type": "Point", "coordinates": [22.358842341750606, 40.089985691443445]}, "properties": {"name": "Mount Olympos", "type": "natural features", "titles": ["brome-the-court-beggar"], "original_label": "Olympus", "count": 1}}, {"type": "Feature", "geometry": {"type": "Point", "coordinates": [22.411, 39.4747]}, "properties": {"name": "Mount Ossa", "type": "natural features", "titles": ["brome-the-court-beggar", "knevet-rhodon-and-iris"], "original_label": "Ossa", "count": 2}}, {"type": "Feature", "geometry": {"type": "Point", "coordinates": [76.04196317392683, 35.06084405]}, "properties": {"name": "Indus River", "type": "natural features", "titles": ["heywood-the-brazen-age", "mason-the-turk", "jonson-the-fortunate-isles-and-their-union", "jonson-neptune-s-triumph-for-the-return-of-albion", "brome-the-court-beggar"], "original_label": "Indus", "count": 5}}, {"type": "Feature", "geometry": {"type": "Point", "coordinates": [22.566, 39.877]}, "properties": {"name": "Tempe", "type": "natural features", "titles": ["cavendish-the-variety", "heywood-the-brazen-age", "glapthorne-albertus-wallenstein", "shirley-the-royal-master", "nabbes-hannibal-and-scipio", "brome-the-lovesick-court"], "original_label": "Tempe", "count": 6}}, {"type": "Feature", "geometry": {"type": "Point", "coordinates": [36.292516538649565, 31.618423679282632]}, "properties": {"name": "Jordan", "type": "natural features", "titles": ["brome-the-weeding-of-the-covent-garden"], "original_label": "Jordan", "count": 1}}, {"type": "Feature", "geometry": {"type": "Point", "coordinates": [23.047757161744833, 39.439325293520156]}, "properties": {"name": "Mount Pelion", "type": "natural features", "titles": ["chapman-bussy-d-ambois"], "original_label": "Pelion", "count": 1}}, {"type": "Feature", "geometry": {"type": "Point", "coordinates": [-4.3307561, 55.8066303]}, "properties": {"name": "Arden, Glasgow, Glasgow City, Alba / Scotland, G46 8AS, United Kingdom", "type": "natural features", "titles": ["chapman-the-tragedy-of-charles-duke-of-byron"], "original_label": "Arden", "count": 1}}, {"type": "Feature", "geometry": {"type": "Point", "coordinates": [-8.994970315235577, 38.84259385]}, "properties": {"name": "Reserva Natural do Estuário do Tejo, Lisboa, Portugal", "type": "natural features", "titles": ["greene-orlando-furioso", "jonson-poetaster", "stephens-cynthia-s-revenge", "middleton-the-family-of-love", "cowley-love-s-riddle", "heywood-the-fair-maid-of-the-west-2"], "original_label": "Tagus", "count": 6}}, {"type": "Feature", "geometry": {"type": "Point", "coordinates": [35.23031191891429, 31.77849013745303]}, "properties": {"name": "Golgotha Gardens", "type": "natural features", "titles": ["davenant-albovine-king-of-the-lombards", "yarington-two-lamentable-tragedies", "webster-rowley-the-thracian-wonder"], "original_label": "Golgotha", "count": 3}}, {"type": "Feature", "geometry": {"type": "Point", "coordinates": [22.6222206, 38.5348857]}, "properties": {"name": "Λιάκουρα, Δημοτική Ενότητα Τιθορέας, Δήμος Αμφίκλειας - Ελάτειας, Περιφερειακή Ενότητα Φθιώτιδας, Περιφέρεια Στερεάς Ελλάδας, Αποκεντρωμένη Διοίκηση Θεσσαλίας - Στερεάς Ελλάδος, Ελλάς", "type": "natural features", "titles": ["jonson-poetaster", "day-the-parliament-of-bees", "marmion-a-fine-companion", "hawkins-apollo-shroving"], "original_label": "Parnassus", "count": 4}}, {"type": "Feature", "geometry": {"type": "Point", "coordinates": [7.19477599492684, 45.832755828037236]}, "properties": {"name": "Alps", "type": "natural features", "titles": ["tomkis-albumazar", "dekker-the-wonder-of-a-kingdom"], "original_label": "Alpine", "count": 2}}, {"type": "Feature", "geometry": {"type": "Point", "coordinates": [22.283333233727316, 38.817401374188144]}, "properties": {"name": "Mount Oeta", "type": "natural features", "titles": ["heywood-the-brazen-age", "fletcher-valentinian", "may-antigone-the-theban-princess"], "original_label": "Oeta", "count": 3}}, {"type": "Feature", "geometry": {"type": "Point", "coordinates": [23.91108439913793, 38.49417235]}, "properties": {"name": "Εύβοια, Αποκεντρωμένη Διοίκηση Θεσσαλίας - Στερεάς Ελλάδος, Ελλάς", "type": "natural features", "titles": ["greene-selimus-1"], "original_label": "Euboea", "count": 1}}, {"type": "Feature", "geometry": {"type": "Point", "coordinates": [14.075851066121032, 40.838396779612346]}, "properties": {"name": "Lake Avernus", "type": "natural features", "titles": ["s-locrine", "heywood-how-a-man-may-choose-a-good-wife-from-a-bad"], "original_label": "Avernus", "count": 2}}, {"type": "Feature", "geometry": {"type": "Point", "coordinates": [25.149960790913052, 39.9088688]}, "properties": {"name": "Λήμνος, Περιφερειακή Ενότητα Λήμνου, Περιφέρεια Βόρειου Αιγαίου, Αποκεντρωμένη Διοίκηση Αιγαίου, Ελλάς", "type": "natural features", "titles": ["heywood-the-brazen-age"], "original_label": "Lemnos", "count": 1}}, {"type": "Feature", "geometry": {"type": "Point", "coordinates": [26.0701917, 39.8347344]}, "properties": {"name": "Bozcaada, Çanakkale, Marmara Bölgesi, 17680, Türkiye", "type": "natural features", "titles": ["heywood-the-iron-age-1", "marlowe-nashe-dido-queen-of-carthage"], "original_label": "Tenedos", "count": 2}}, {"type": "Feature", "geometry": {"type": "Point", "coordinates": [20.670092887359495, 38.401896050000005]}, "properties": {"name": "Ιθάκη, Περαχώρι, Δήμος Ιθάκης, Περιφερειακή Ενότητα Ιθάκης, Περιφέρεια Ιονίων Νήσων, Αποκεντρωμένη Διοίκηση Πελοποννήσου, Δυτικής Ελλάδας και Ιονίου, 283 00, Ελλάς", "type": "natural features", "titles": ["heywood-the-iron-age-1"], "original_label": "Ithaca", "count": 1}}, {"type": "Feature", "geometry": {"type": "Point", "coordinates": [23.59211, 38.43315]}, "properties": {"name": "Aulis, Greece", "type": "natural features", "titles": ["heywood-the-iron-age-2", "marlowe-nashe-dido-queen-of-carthage"], "original_label": "Aulis", "count": 2}}, {"type": "Feature", "geometry": {"type": "Point", "coordinates": [29.06808639763423, 41.14567611362854]}, "properties": {"name": "Hellespontus", "type": "natural features", "titles": ["jonson-bartholomew-fair", "mason-the-turk", "s-locrine", "shirley-the-sisters", "anon-the-taming-of-a-shrew"], "original_label": "Hellespont", "count": 5}}, {"type": "Feature", "geometry": {"type": "Point", "coordinates": [9.3238432, 17.7356214]}, "properties": {"name": "Niger", "type": "natural features", "titles": ["kirke-the-seven-champions-of-christendom"], "original_label": "Niger", "count": 1}}, {"type": "Feature", "geometry": {"type": "Point", "coordinates": [14.4261967, 40.8213963]}, "properties": {"name": "Vesuvio, Trecase, Napoli, Campania, 80040, Italia", "type": "natural features", "titles": ["knevet-rhodon-and-iris"], "original_label": "Vesuvius", "count": 1}}, {"type": "Feature", "geometry": {"type": "Point", "coordinates": [23.8147296, 37.9457841]}, "properties": {"name": "Υμηττός, Δήμος Βύρωνα, Περιφερειακή Ενότητα Κεντρικού Τομέα Αθηνών, Περιφέρεια Αττικής, Αποκεντρωμένη Διοίκηση Αττικής, 156 69, Ελλάς", "type": "natural features", "titles": ["knevet-rhodon-and-iris"], "original_label": "Hymettus", "count": 1}}, {"type": "Feature", "geometry": {"type": "Point", "coordinates": [43.5712969, 34.9983593]}, "properties": {"name": "نهر دجلة, هەرێمی کوردستان, العراق", "type": "natural features", "titles": ["knevet-rhodon-and-iris"], "original_label": "Tigris", "count": 1}}, {"type": "Feature", "geometry": {"type": "Point", "coordinates": [-0.3652257, 53.7124015]}, "properties": {"name": "Humber, North Lincolnshire, England, United Kingdom", "type": "natural features", "titles": ["lyly-gallathea", "s-locrine"], "original_label": "Humber", "count": 2}}, {"type": "Feature", "geometry": {"type": "Point", "coordinates": [25.998913450232415, 39.17584185]}, "properties": {"name": "Λέσβος, Αποκεντρωμένη Διοίκηση Αιγαίου, Ελλάς", "type": "natural features", "titles": ["lyly-midas"], "original_label": "Lesbos", "count": 1}}, {"type": "Feature", "geometry": {"type": "Point", "coordinates": [14.9940321, 37.7510251]}, "properties": {"name": "Etna, Zafferana Etnea, Catania, Sicilia, 95019, Italia", "type": "natural features", "titles": ["machin-barkstead-marston-the-insatiate-countess", "marlowe-nashe-dido-queen-of-carthage", "mason-the-turk", "stephens-cynthia-s-revenge"], "original_label": "Etna/Etnean", "count": 4}}, {"type": "Feature", "geometry": {"type": "Point", "coordinates": [29.07186007493094, 41.112525899999994]}, "properties": {"name": "İstanbul Boğazı, İstanbul, Marmara Bölgesi, Türkiye", "type": "natural features", "titles": ["marmion-a-fine-companion", "middleton-rowley-the-changeling"], "original_label": "Bosphorus", "count": 2}}, {"type": "Feature", "geometry": {"type": "Point", "coordinates": [14.1402297, 40.8274575]}, "properties": {"name": "Campi Flegrei, Via San Gennaro Agnano, Rione La Solfatara, Pisciarelli, Pozzuoli, Napoli, Campania, 80078, Italia", "type": "natural features", "titles": ["massinger-the-roman-actor"], "original_label": "Phlegraean", "count": 1}}, {"type": "Feature", "geometry": {"type": "Point", "coordinates": [26.814418481932027, 37.72857157509608]}, "properties": {"name": "Samos, Greece", "type": "natural features", "titles": ["nashe-summer-s-last-will-and-testament", "may-cleopatra-queen-of-egypt"], "original_label": "Samos", "count": 2}}, {"type": "Feature", "geometry": {"type": "Point", "coordinates": [29.79177099136226, 31.20507446498173]}, "properties": {"name": "Pharos", "type": "natural features", "titles": ["may-cleopatra-queen-of-egypt"], "original_label": "Pharos", "count": 1}}, {"type": "Feature", "geometry": {"type": "Point", "coordinates": [12.477724622084343, 41.884073050716026]}, "properties": {"name": "Aventine Hill", "type": "natural features", "titles": ["may-cleopatra-queen-of-egypt"], "original_label": "Aventine", "count": 1}}, {"type": "Feature", "geometry": {"type": "Point", "coordinates": [-5.3474761, 36.1285933]}, "properties": {"name": "Gibraltar", "type": "natural features", "titles": ["tomkis-albumazar", "middleton-rowley-the-changeling"], "original_label": "Gibraltar", "count": 2}}, {"type": "Feature", "geometry": {"type": "Point", "coordinates": [-3.262963534701616, 52.57016480662874]}, "properties": {"name": "Severn River", "type": "natural features", "titles": ["milton-comus"], "original_label": "Severn", "count": 1}}, {"type": "Feature", "geometry": {"type": "Point", "coordinates": [24.46334231842296, 35.308495199999996]}, "properties": {"name": "Κρήτη, Αποκεντρωμένη Διοίκηση Κρήτης, Ελλάς", "type": "natural features", "titles": ["pikering-horestes"], "original_label": "Crete", "count": 1}}, {"type": "Feature", "geometry": {"type": "Point", "coordinates": [19.9180908, 39.6217347]}, "properties": {"name": "Κέρκυρα, Δήμος Κεντρικής Κέρκυρας και Διαποντίων Νήσων, Περιφερειακή Ενότητα Κέρκυρας, Περιφέρεια Ιονίων Νήσων, Αποκεντρωμένη Διοίκηση Πελοποννήσου, Δυτικής Ελλάδας και Ιονίου, 491 00, Ελλάς", "type": "natural features", "titles": ["richards-messalina-the-roman-empress"], "original_label": "Corcyra", "count": 1}}, {"type": "Feature", "geometry": {"type": "Point", "coordinates": [-4.129093510499818, 50.4107649]}, "properties": {"name": "Mountford, 13, Smallack Drive, Manadon, Crownhill, Plymouth, England, PL6 5DN, United Kingdom", "type": "natural features", "titles": ["w-the-valiant-scot"], "original_label": "Mountford", "count": 1}}, {"type": "Feature", "geometry": {"type": "Point", "coordinates": [25.271738783873314, 37.39089]}, "properties": {"name": "Δήλος, Δήμος Μυκόνου, Περιφερειακή Ενότητα Μυκόνου, Περιφέρεια Νοτίου Αιγαίου, Αποκεντρωμένη Διοίκηση Αιγαίου, Ελλάς", "type": "natural features", "titles": ["zouche-the-sophister"], "original_label": "Delos", "count": 1}}, {"type": "Feature", "geometry": {"type": "Point", "coordinates": [12.102642037383958, 43.137693]}, "properties": {"name": "Lake Trasimeno", "type": "natural features", "titles": ["alexander-caesar", "marlowe-dr-faustus"], "original_label": "Thrasimene", "count": 2}}, {"type": "Feature", "geometry": {"type": "Point", "coordinates": [14.994035377195853, 37.75222425903074]}, "properties": {"name": "Mount Etna", "type": "natural features", "titles": ["barnes-the-devil-s-charter"], "original_label": "Mongibell", "count": 1}}, {"type": "Feature", "geometry": {"type": "Point", "coordinates": [23.249336856924803, 38.185988690254746]}, "properties": {"name": "Mount Cythaeron", "type": "natural features", "titles": ["chapman-bussy-d-ambois"], "original_label": "Cythaeron", "count": 1}}, {"type": "Feature", "geometry": {"type": "Point", "coordinates": [18.0, 56.0]}, "properties": {"name": "Baltic", "type": "natural features", "titles": ["davenant-albovine-king-of-the-lombards"], "original_label": "Baltick", "count": 1}}, {"type": "Feature", "geometry": {"type": "Point", "coordinates": [44.5949707621117, 48.616234000000006]}, "properties": {"name": "Volga River", "type": "natural features", "titles": ["greene-friar-bacon-and-friar-bongay"], "original_label": "Volga", "count": 1}}, {"type": "Feature", "geometry": {"type": "Point", "coordinates": [4.8576431, 45.7577894]}, "properties": {"name": "Nemea", "type": "natural features", "titles": ["knevet-rhodon-and-iris"], "original_label": "Nemaean", "count": 1}}, {"type": "Feature", "geometry": {"type": "Point", "coordinates": [29.07186007493094, 41.112525899999994]}, "properties": {"name": "Bosphorus", "type": "natural features", "titles": ["kyd-soliman-and-perseda"], "original_label": "Bosphoron", "count": 1}}, {"type": "Feature", "geometry": {"type": "Point", "coordinates": [27.365024111523013, 38.68587783155482]}, "properties": {"name": "Pactolus River", "type": "natural features", "titles": ["lyly-midas"], "original_label": "Pactolus", "count": 1}}, {"type": "Feature", "geometry": {"type": "Point", "coordinates": [11.9999826, 39.9999743]}, "properties": {"name": "Tyrrhenian", "type": "natural features", "titles": ["milton-comus", "richards-messalina-the-roman-empress"], "original_label": "Tyrrhenic/Tyrhen", "count": 2}}]}